[{"OBJECT_NAME":"JILIN-1 GAOFEN 3I","OBJECT_ID":"2020-065H","EPOCH":"2026-03-09T21:52:33.609504","MEAN_MOTION":15.70055987,"ECCENTRICITY":0.00105914,"INCLINATION":97.2419,"RA_OF_ASC_NODE":125.8258,"ARG_OF_PERICENTER":92.4806,"MEAN_ANOMALY":267.767,"EPHEMERIS_TYPE":0,"CLASSIFICATION_TYPE":"U","NORAD_CAT_ID":46461,"ELEMENT_SET_NO":999,"REV_AT_EPOCH":30463,"BSTAR":0.00089589772,"MEAN_MOTION_DOT":0.00109158,"MEAN_MOTION_DDOT":0},{"OBJECT_NAME":"STARLINK-11099 [DTC]","OBJECT_ID":"2024-088J","EPOCH":"2026-03-09T22:48:37.323072","MEAN_MOTION":15.69724014,"ECCENTRICITY":0.00011756,"INCLINATION":53.1581,"RA_OF_ASC_NODE":324.9499,"ARG_OF_PERICENTER":124.4327,"MEAN_ANOMALY":235.6802,"EPHEMERIS_TYPE":0,"CLASSIFICATION_TYPE":"U","NORAD_CAT_ID":59716,"ELEMENT_SET_NO":999,"REV_AT_EPOCH":10631,"BSTAR":5.8223048e-5,"MEAN_MOTION_DOT":6.474e-5,"MEAN_MOTION_DDOT":0}]
